{
"type": "FeatureCollection",
"name": "adaptive_boxes",
"crs": { "type": "name", "properties": { "name": "urn:ogc:def:crs:OGC:1.3:CRS84" } },
"features": [
{ "type": "Feature", "properties": { "point_count": 350, "lon_min": -180.0, "lon_max": 117.24609375, "lat_min": -90, "lat_max": -60, "lon_width": 297.24609375 }, "geometry": { "type": "Polygon", "coordinates": [ [ [ 117.24609375, -90.0 ], [ 117.24609375, -60.0 ], [ -180.0, -60.0 ], [ -180.0, -90.0 ], [ 117.24609375, -90.0 ] ] ] } },
{ "type": "Feature", "properties": { "point_count": 92, "lon_min": 117.24609375, "lon_max": 180.0, "lat_min": -90, "lat_max": -60, "lon_width": 62.75390625 }, "geometry": { "type": "Polygon", "coordinates": [ [ [ 180.0, -90.0 ], [ 180.0, -60.0 ], [ 117.24609375, -60.0 ], [ 117.24609375, -90.0 ], [ 180.0, -90.0 ] ] ] } },
{ "type": "Feature", "properties": { "point_count": 216, "lon_min": -180.0, "lon_max": 180.0, "lat_min": -60, "lat_max": -30, "lon_width": 360.0 }, "geometry": { "type": "Polygon", "coordinates": [ [ [ 180.0, -60.0 ], [ 180.0, -30.0 ], [ -180.0, -30.0 ], [ -180.0, -60.0 ], [ 180.0, -60.0 ] ] ] } },
{ "type": "Feature", "properties": { "point_count": 349, "lon_min": -180.0, "lon_max": -49.097900390625, "lat_min": -30, "lat_max": 0, "lon_width": 130.902099609375 }, "geometry": { "type": "Polygon", "coordinates": [ [ [ -49.097900390625, -30.0 ], [ -49.097900390625, 0.0 ], [ -180.0, 0.0 ], [ -180.0, -30.0 ], [ -49.097900390625, -30.0 ] ] ] } },
{ "type": "Feature", "properties": { "point_count": 350, "lon_min": -49.097900390625, "lon_max": 31.150686666369438, "lat_min": -30, "lat_max": 0, "lon_width": 80.248587056994438 }, "geometry": { "type": "Polygon", "coordinates": [ [ [ 31.150686666369438, -30.0 ], [ 31.150686666369438, 0.0 ], [ -49.097900390625, 0.0 ], [ -49.097900390625, -30.0 ], [ 31.150686666369438, -30.0 ] ] ] } },
{ "type": "Feature", "properties": { "point_count": 349, "lon_min": 31.150686666369438, "lon_max": 144.55016963941489, "lat_min": -30, "lat_max": 0, "lon_width": 113.39948297304545 }, "geometry": { "type": "Polygon", "coordinates": [ [ [ 144.550169639414889, -30.0 ], [ 144.550169639414889, 0.0 ], [ 31.150686666369438, 0.0 ], [ 31.150686666369438, -30.0 ], [ 144.550169639414889, -30.0 ] ] ] } },
{ "type": "Feature", "properties": { "point_count": 48, "lon_min": 144.55016963941489, "lon_max": 180.0, "lat_min": -30, "lat_max": 0, "lon_width": 35.449830360585111 }, "geometry": { "type": "Polygon", "coordinates": [ [ [ 180.0, -30.0 ], [ 180.0, 0.0 ], [ 144.550169639414889, 0.0 ], [ 144.550169639414889, -30.0 ], [ 180.0, -30.0 ] ] ] } },
{ "type": "Feature", "properties": { "point_count": 350, "lon_min": -180.0, "lon_max": -3.834228515625, "lat_min": 0, "lat_max": 30, "lon_width": 176.165771484375 }, "geometry": { "type": "Polygon", "coordinates": [ [ [ -3.834228515625, 0.0 ], [ -3.834228515625, 30.0 ], [ -180.0, 30.0 ], [ -180.0, 0.0 ], [ -3.834228515625, 0.0 ] ] ] } },
{ "type": "Feature", "properties": { "point_count": 350, "lon_min": -3.834228515625, "lon_max": 25.119886882603168, "lat_min": 0, "lat_max": 30, "lon_width": 28.954115398228168 }, "geometry": { "type": "Polygon", "coordinates": [ [ [ 25.119886882603168, 0.0 ], [ 25.119886882603168, 30.0 ], [ -3.834228515625, 30.0 ], [ -3.834228515625, 0.0 ], [ 25.119886882603168, 0.0 ] ] ] } },
{ "type": "Feature", "properties": { "point_count": 350, "lon_min": 25.119886882603168, "lon_max": 64.218040438117896, "lat_min": 0, "lat_max": 30, "lon_width": 39.098153555514727 }, "geometry": { "type": "Polygon", "coordinates": [ [ [ 64.218040438117896, 0.0 ], [ 64.218040438117896, 30.0 ], [ 25.119886882603168, 30.0 ], [ 25.119886882603168, 0.0 ], [ 64.218040438117896, 0.0 ] ] ] } },
{ "type": "Feature", "properties": { "point_count": 350, "lon_min": 64.218040438117896, "lon_max": 125.61413813548312, "lat_min": 0, "lat_max": 30, "lon_width": 61.396097697365221 }, "geometry": { "type": "Polygon", "coordinates": [ [ [ 125.614138135483117, 0.0 ], [ 125.614138135483117, 30.0 ], [ 64.218040438117896, 30.0 ], [ 64.218040438117896, 0.0 ], [ 125.614138135483117, 0.0 ] ] ] } },
{ "type": "Feature", "properties": { "point_count": 2, "lon_min": 125.61413813548312, "lon_max": 180.0, "lat_min": 0, "lat_max": 30, "lon_width": 54.385861864516883 }, "geometry": { "type": "Polygon", "coordinates": [ [ [ 180.0, 0.0 ], [ 180.0, 30.0 ], [ 125.614138135483117, 30.0 ], [ 125.614138135483117, 0.0 ], [ 180.0, 0.0 ] ] ] } },
{ "type": "Feature", "properties": { "point_count": 350, "lon_min": -180.0, "lon_max": -89.1705322265625, "lat_min": 30, "lat_max": 60, "lon_width": 90.8294677734375 }, "geometry": { "type": "Polygon", "coordinates": [ [ [ -89.1705322265625, 30.0 ], [ -89.1705322265625, 60.0 ], [ -180.0, 60.0 ], [ -180.0, 30.0 ], [ -89.1705322265625, 30.0 ] ] ] } },
{ "type": "Feature", "properties": { "point_count": 350, "lon_min": -89.1705322265625, "lon_max": 20.475716069340706, "lat_min": 30, "lat_max": 60, "lon_width": 109.64624829590321 }, "geometry": { "type": "Polygon", "coordinates": [ [ [ 20.475716069340706, 30.0 ], [ 20.475716069340706, 60.0 ], [ -89.1705322265625, 60.0 ], [ -89.1705322265625, 30.0 ], [ 20.475716069340706, 30.0 ] ] ] } },
{ "type": "Feature", "properties": { "point_count": 350, "lon_min": 20.475716069340706, "lon_max": 62.878563757208212, "lat_min": 30, "lat_max": 60, "lon_width": 42.402847687867506 }, "geometry": { "type": "Polygon", "coordinates": [ [ [ 62.878563757208212, 30.0 ], [ 62.878563757208212, 60.0 ], [ 20.475716069340706, 60.0 ], [ 20.475716069340706, 30.0 ], [ 62.878563757208212, 30.0 ] ] ] } },
{ "type": "Feature", "properties": { "point_count": 350, "lon_min": 62.878563757208212, "lon_max": 98.542555786949919, "lat_min": 30, "lat_max": 60, "lon_width": 35.663992029741713 }, "geometry": { "type": "Polygon", "coordinates": [ [ [ 98.542555786949919, 30.0 ], [ 98.542555786949919, 60.0 ], [ 62.878563757208212, 60.0 ], [ 62.878563757208212, 30.0 ], [ 98.542555786949919, 30.0 ] ] ] } },
{ "type": "Feature", "properties": { "point_count": 348, "lon_min": 98.542555786949919, "lon_max": 180.0, "lat_min": 30, "lat_max": 60, "lon_width": 81.457444213050081 }, "geometry": { "type": "Polygon", "coordinates": [ [ [ 180.0, 30.0 ], [ 180.0, 60.0 ], [ 98.542555786949919, 60.0 ], [ 98.542555786949919, 30.0 ], [ 180.0, 30.0 ] ] ] } },
{ "type": "Feature", "properties": { "point_count": 350, "lon_min": -180.0, "lon_max": 40.0506591796875, "lat_min": 60, "lat_max": 90, "lon_width": 220.0506591796875 }, "geometry": { "type": "Polygon", "coordinates": [ [ [ 40.0506591796875, 60.0 ], [ 40.0506591796875, 90.0 ], [ -180.0, 90.0 ], [ -180.0, 60.0 ], [ 40.0506591796875, 60.0 ] ] ] } },
{ "type": "Feature", "properties": { "point_count": 316, "lon_min": 40.0506591796875, "lon_max": 180.0, "lat_min": 60, "lat_max": 90, "lon_width": 139.9493408203125 }, "geometry": { "type": "Polygon", "coordinates": [ [ [ 180.0, 60.0 ], [ 180.0, 90.0 ], [ 40.0506591796875, 90.0 ], [ 40.0506591796875, 60.0 ], [ 180.0, 60.0 ] ] ] } }
]
}
